{"type":"FeatureCollection","features":[{"type":"Feature","id":0,"geometry":{"type":"Point","coordinates":[-49.081751774361187,-21.047294014860384]},"properties":{"FID":0,"cod":1,"tipo":"AACP","mudas":25000,"Municipio":"Catiguá","nome":"Catiguá","doc":"AACP  571/03","contrato":"02.391/24","contratada":"PUCCI","Status_con":"Em operação","area_ha":19.5,"Link":"https://sabespcloud.sharepoint.com/:b:/r/sites/GerenciamentodosPlantios/Documentos%20Compartilhados/CT%2002391_24%20assinado.pdf?csf=1&web=1&e=67d1AR","anexo":" "}},{"type":"Feature","id":1,"geometry":{"type":"Point","coordinates":[-48.400098771660382,-23.109049734353381]},"properties":{"FID":1,"cod":2,"tipo":"TCRA","mudas":49167,"Municipio":"Pardinho","nome":"Pardo 1","doc":"LO 048355/2020","contrato":"02.036/22","contratada":"TAIATELA","Status_con":"Em operação","area_ha":29,"Link":"https://sabespcloud.sharepoint.com/:b:/r/sites/GerenciamentodosPlantios/Documentos%20Compartilhados/Edital%2002.036-22%20Digitalizado.pdf?csf=1&web=1&e=iifmQI","anexo":" "}},{"type":"Feature","id":2,"geometry":{"type":"Point","coordinates":[-48.422451871218122,-22.992507852821625]},"properties":{"FID":2,"cod":3,"tipo":"TCRA","mudas":151114,"Municipio":"Botucatu","nome":"Pardo 2","doc":"TCRA 90.276/2019","contrato":"412/25-00","contratada":" ","Status_con":"À contratar","area_ha":95.5,"Link":"https://sabespcloud.sharepoint.com/:b:/r/sites/GerenciamentodosPlantios/Documentos%20Compartilhados/01_TR_Projeto_de_Restauracao_Ecologica_manutencao_de_reflorestamento.pdf?csf=1&web=1&e=akrtaP","anexo":" "}},{"type":"Feature","id":3,"geometry":{"type":"Point","coordinates":[-46.719251518266034,-23.596369824955058]},"properties":{"FID":3,"cod":4,"tipo":"TCRA","mudas":212,"Municipio":"São Paulo","nome":"URQ Antonico","doc":"TCRA Nº 21808/2021","contrato":"01.375/23","contratada":"ECOTEC","Status_con":"Em operação","area_ha":0.12,"Link":"https://sabespcloud.sharepoint.com/:b:/r/sites/GerenciamentodosPlantios/Documentos%20Compartilhados/Contrato%2001375_23%20assinado.pdf?csf=1&web=1&e=LH2PR4","anexo":" "}},{"type":"Feature","id":4,"geometry":{"type":"Point","coordinates":[-46.183681228909606,-23.928614453170585]},"properties":{"FID":4,"cod":5,"tipo":"TCRA","mudas":40,"Municipio":"Guarujá","nome":"Guarujá","doc":"TCRA 43.551/21","contrato":"00034/22","contratada":"ECOTEC","Status_con":"Em operação","area_ha":0.043999999999999997,"Link":"https://sabespcloud.sharepoint.com/:b:/r/sites/GerenciamentodosPlantios/Documentos%20Compartilhados/CONTRATO_34-22_assi.pdf?csf=1&web=1&e=BSgydL","anexo":" "}},{"type":"Feature","id":5,"geometry":{"type":"Point","coordinates":[-45.888865379548001,-23.578442721010916]},"properties":{"FID":5,"cod":6,"tipo":"TCRA","mudas":81679,"Municipio":"Salesópolis","nome":"Itapanhaú","doc":"TCRA 75.644/22","contrato":"01588/23","contratada":"KOMATSU","Status_con":"Em operação","area_ha":49.259999999999998,"Link":"https://sabespcloud.sharepoint.com/:b:/r/sites/GerenciamentodosPlantios/Documentos%20Compartilhados/Contrato%2001.588-23.pdf?csf=1&web=1&e=Rcqjzh","anexo":" "}},{"type":"Feature","id":6,"geometry":{"type":"Point","coordinates":[-46.309527197191549,-23.049632531627296]},"properties":{"FID":6,"cod":7,"tipo":"TCRA","mudas":20000,"Municipio":"Piracaia","nome":"Saldo Cachoeira (Novo)","doc":"TCRA 76.781/18","contrato":" ","contratada":" ","Status_con":"À contratar","area_ha":64.400000000000006,"Link":" ","anexo":" "}},{"type":"Feature","id":7,"geometry":{"type":"Point","coordinates":[-46.44624992659277,-22.942852946406333]},"properties":{"FID":7,"cod":8,"tipo":"TCRA","mudas":228847,"Municipio":"Bragança Paulista","nome":"Saldo Jaguari-Jacareí","doc":"78.341/22","contrato":"0912/23","contratada":" ","Status_con":"À contratar","area_ha":145,"Link":"https://sabespcloud.sharepoint.com/:b:/r/sites/GerenciamentodosPlantios/Documentos%20Compartilhados/TR_Projeto%20de%20Restauracao_Bragan%C3%A7a_Paulista_REV08.pdf?csf=1&web=1&e=8yRtV7","anexo":"https://sabespcloud.sharepoint.com/:i:/r/sites/GerenciamentodosPlantios/Documentos%20Compartilhados/incendio.jpg?csf=1&web=1&e=mqhWvJ"}},{"type":"Feature","id":8,"geometry":{"type":"Point","coordinates":[-46.294361892366375,-23.045405156923078]},"properties":{"FID":8,"cod":9,"tipo":"TCRA","mudas":300000,"Municipio":"Piracaia","nome":"Saldo Cachoeira (R)","doc":"TCRA","contrato":" ","contratada":"Plantverdi","Status_con":"Concluido","area_ha":200,"Link":" ","anexo":" "}},{"type":"Feature","id":9,"geometry":{"type":"Point","coordinates":[-46.314884680684415,-23.068913658567016]},"properties":{"FID":9,"cod":10,"tipo":"TCRA","mudas":260052,"Municipio":"Piracaia","nome":"Saldo e Passivo Cachoeira (M)","doc":"TCRA  32.363/19","contrato":"00.467/23","contratada":"Agriterra","Status_con":"Concluido","area_ha":156,"Link":"https://sabespcloud.sharepoint.com/:b:/r/sites/GerenciamentodosPlantios/Documentos%20Compartilhados/Termo_Contrato_00467_23_assinado.pdf?csf=1&web=1&e=AC4nLO","anexo":" "}},{"type":"Feature","id":10,"geometry":{"type":"Point","coordinates":[-46.512269259056005,-23.866412331902822]},"properties":{"FID":10,"cod":11,"tipo":"TCRA","mudas":3593,"Municipio":"São Bernardo do Campo","nome":"Itutinga-Pilões","doc":"TCRA 53.657/21","contrato":"01530/23","contratada":"ECOTEC","Status_con":"Em operação","area_ha":17.27,"Link":"https://sabespcloud.sharepoint.com/:b:/r/sites/GerenciamentodosPlantios/Documentos%20Compartilhados/Contrato_01530_23_assinado.pdf?csf=1&web=1&e=m5s3Yp","anexo":" "}},{"type":"Feature","id":11,"geometry":{"type":"Point","coordinates":[-46.803063739692476,-24.080228212723572]},"properties":{"FID":11,"cod":12,"tipo":"TCRA","mudas":2475,"Municipio":"Itanhaem","nome":"TCRA Itanhaem - EEAB Rio Branco","doc":"TCRA 68.594/22","contrato":"01530/23","contratada":"ECOTEC","Status_con":"Em operação","area_ha":1,"Link":"https://sabespcloud.sharepoint.com/:b:/r/sites/GerenciamentodosPlantios/Documentos%20Compartilhados/Contrato_01530_23_assinado.pdf?csf=1&web=1&e=m5s3Yp","anexo":" "}},{"type":"Feature","id":12,"geometry":{"type":"Point","coordinates":[-47.01646627985842,-24.31609087814881]},"properties":{"FID":12,"cod":13,"tipo":"TCRA","mudas":4402,"Municipio":"Peruíbe","nome":"TCRA Peruíbe ETE Sistema 1","doc":"TCRA 68.594/22","contrato":"01530/23","contratada":"ECOTEC","Status_con":"Em operação","area_ha":3.96,"Link":"https://sabespcloud.sharepoint.com/:b:/r/sites/GerenciamentodosPlantios/Documentos%20Compartilhados/Contrato_01530_23_assinado.pdf?csf=1&web=1&e=m5s3Yp","anexo":" "}},{"type":"Feature","id":13,"geometry":{"type":"Point","coordinates":[-46.353712076417047,-23.156497335446467]},"properties":{"FID":13,"cod":14,"tipo":"TCRA","mudas":20004,"Municipio":"Nazaré Paulista","nome":"Saldo Nazaré Paulista","doc":"TCRA 52.976/21","contrato":"02109/23","contratada":"ECOVALE","Status_con":"Em operação","area_ha":12,"Link":"https://sabespcloud.sharepoint.com/:b:/r/sites/GerenciamentodosPlantios/Documentos%20Compartilhados/Contrato_02109_23_assinado.pdf?csf=1&web=1&e=h5ffyg","anexo":" "}},{"type":"Feature","id":14,"geometry":{"type":"Point","coordinates":[-46.126019286367168,-23.168034896551653]},"properties":{"FID":14,"cod":15,"tipo":"TCRA","mudas":58522,"Municipio":"Igaratá","nome":"Replantio Igaratá","doc":"TCRA 77370/19","contrato":"15747/17","contratada":"PLANTAE","Status_con":"Cancelado","area_ha":34.960000000000001,"Link":"https://sabespcloud.sharepoint.com/:b:/r/sites/GerenciamentodosPlantios/Documentos%20Compartilhados/Instauracao_de_Processo_Administrativo_Comunicacao_SABESP.pdf?csf=1&web=1&e=jhGqXN","anexo":" "}},{"type":"Feature","id":15,"geometry":{"type":"Point","coordinates":[-46.443181746381264,-22.755093318598224]},"properties":{"FID":15,"cod":16,"tipo":"TAC","mudas":15000,"Municipio":"Pedra Bela","nome":"Pedra Bela","doc":"Inquérito civil n°  1008142-14.2016.8.26.0099","contrato":" ","contratada":" ","Status_con":"À contratar","area_ha":9.3000000000000007,"Link":"https://sabespcloud.sharepoint.com/:b:/r/sites/GerenciamentodosPlantios/Documentos%20Compartilhados/Plano%20de%20a%C3%A7%C3%A3o_assinado.pdf?csf=1&web=1&e=WbFbWC","anexo":" "}},{"type":"Feature","id":16,"geometry":{"type":"Point","coordinates":[-46.530071015093796,-22.593396582077588]},"properties":{"FID":16,"cod":17,"tipo":"TAC","mudas":16203,"Municipio":"Socorro","nome":"Socorro - Gilberto Marcon","doc":"Inquérito civil n° 51.07.04.0000105/2010","contrato":"01.467/22","contratada":"ECOTEC","Status_con":" ","area_ha":9.7200000000000006,"Link":"https://sabespcloud.sharepoint.com/:b:/r/sites/GerenciamentodosPlantios/Documentos%20Compartilhados/CT01.467-22.pdf?csf=1&web=1&e=vPOSh0","anexo":" "}},{"type":"Feature","id":17,"geometry":{"type":"Point","coordinates":[-46.452181252925143,-23.539159885592092]},"properties":{"FID":17,"cod":18,"tipo":"TAC","mudas":0,"Municipio":"São Paulo","nome":"TCA Itaquera - Manutenção","doc":" ","contrato":" ","contratada":" ","Status_con":" ","area_ha":0,"Link":" ","anexo":" "}},{"type":"Feature","id":18,"geometry":{"type":"Point","coordinates":[-48.843065277174773,-24.51289228033249]},"properties":{"FID":18,"cod":19,"tipo":"TAC","mudas":35007,"Municipio":"Apiaí","nome":"Apiaí","doc":"Inquérito civil n° 514.0704.0000104/2010-7","contrato":" ","contratada":" ","Status_con":"À contratar","area_ha":21,"Link":"https://sabespcloud.sharepoint.com/:b:/r/sites/GerenciamentodosPlantios/Documentos%20Compartilhados/TAC%20Apia%C3%AD.pdf?csf=1&web=1&e=gvdnFI","anexo":" "}},{"type":"Feature","id":19,"geometry":{"type":"Point","coordinates":[-48.504607288725843,-24.31889218431353]},"properties":{"FID":19,"cod":20,"tipo":"TAC","mudas":24656,"Municipio":"Iporanga","nome":"Iporanga - PETAR","doc":"140704/2010 / inquérito civil 14.0704.0000115/2010-5","contrato":" ","contratada":" ","Status_con":"À contratar","area_ha":5.5999999999999996,"Link":"https://sabespcloud.sharepoint.com/:b:/r/sites/GerenciamentodosPlantios/Documentos%20Compartilhados/PROJETO%20PETAR%20Iporanga.pdf?csf=1&web=1&e=hC6jgU","anexo":" "}},{"type":"Feature","id":20,"geometry":{"type":"Point","coordinates":[-48.82817675993978,-24.639936964495408]},"properties":{"FID":20,"cod":21,"tipo":"TAC","mudas":24656,"Municipio":"Itaóca","nome":"Itaoca","doc":"1723/42 / inquérito civil 14.0704.0000102/2010-5","contrato":" ","contratada":" ","Status_con":"À contratar","area_ha":5.5999999999999996,"Link":"https://sabespcloud.sharepoint.com/:b:/r/sites/GerenciamentodosPlantios/Documentos%20Compartilhados/PROJETO%20PETAR%20Iporanga.pdf?csf=1&web=1&e=5gwmJU","anexo":" "}},{"type":"Feature","id":21,"geometry":{"type":"Point","coordinates":[-49.038649701436036,-24.615674788270045]},"properties":{"FID":21,"cod":22,"tipo":"TAC","mudas":24656,"Municipio":"Ribeira","nome":"Ribeira","doc":"inquérito civil 14.0704.0000101-10-3","contrato":" ","contratada":" ","Status_con":"À contratar","area_ha":5.5999999999999996,"Link":"https://sabespcloud.sharepoint.com/:b:/r/sites/GerenciamentodosPlantios/Documentos%20Compartilhados/PROJETO%20PETAR%20Iporanga.pdf?csf=1&web=1&e=5gwmJU","anexo":" "}},{"type":"Feature","id":22,"geometry":{"type":"Point","coordinates":[-48.041778652228672,-24.270318734333426]},"properties":{"FID":22,"cod":23,"tipo":"TAC","mudas":23338,"Municipio":"Sete Barras","nome":"Sete Barras","doc":"Inquérito civil n° 14.0704.0000072/2015-6","contrato":" ","contratada":" ","Status_con":"À contratar","area_ha":14,"Link":"https://sabespcloud.sharepoint.com/:b:/r/sites/GerenciamentodosPlantios/Documentos%20Compartilhados/TAC%20Sete%20Barras.pdf?csf=1&web=1&e=b54Lp7","anexo":" "}},{"type":"Feature","id":23,"geometry":{"type":"Point","coordinates":[-49.086557474369037,-24.440492089837065]},"properties":{"FID":23,"cod":24,"tipo":"TAC","mudas":24656,"Municipio":"Barra do Chapéu","nome":"Barra do Chapéu","doc":"TCRA 58.104/14","contrato":" ","contratada":" ","Status_con":"À contratar","area_ha":5.5999999999999996,"Link":"https://sabespcloud.sharepoint.com/:b:/r/sites/GerenciamentodosPlantios/Documentos%20Compartilhados/PROJ_REST._ECOL._SITIO_MACHADO_e_anexos_ass__1_.pdf?csf=1&web=1&e=bRpHqJ","anexo":" "}},{"type":"Feature","id":24,"geometry":{"type":"Point","coordinates":[-48.244184196585067,-24.842584955516521]},"properties":{"FID":24,"cod":25,"tipo":"TAC","mudas":24471,"Municipio":"Cajati","nome":"Cajati","doc":"Inquérito civil n° 14.0704.000081/2011-2","contrato":"01.530/23","contratada":"ECOTEC","Status_con":"Em operação","area_ha":14.68,"Link":"https://sabespcloud.sharepoint.com/:b:/r/sites/GerenciamentodosPlantios/Documentos%20Compartilhados/Projeto%20Cajati%20Capelinha_rev02_completo.pdf?csf=1&web=1&e=srOqpn","anexo":" "}},{"type":"Feature","id":25,"geometry":{"type":"Point","coordinates":[-47.563905967087891,-24.706469264922202]},"properties":{"FID":25,"cod":26,"tipo":"TAC","mudas":0,"Municipio":"Iguape","nome":"Iguape - Sítio Rincão","doc":"Inquérito civil n° 14.0704.000081/2011-3","contrato":" ","contratada":" ","Status_con":" ","area_ha":13.789999999999999,"Link":" ","anexo":" "}},{"type":"Feature","id":26,"geometry":{"type":"Point","coordinates":[-47.746509080560479,-24.645622451155564]},"properties":{"FID":26,"cod":27,"tipo":"TAC","mudas":0,"Municipio":"Iguape","nome":"Iguape - Fazenda Matuava (Cercamento)","doc":"Ação civil pública 0002767-122010.8.26.0244","contrato":" ","contratada":" ","Status_con":"À contratar","area_ha":38,"Link":"https://sabespcloud.sharepoint.com/:b:/r/sites/GerenciamentodosPlantios/Documentos%20Compartilhados/Proposta%20Fazenda%20Matuava%20Iguape%20com%20anexos.pdf?csf=1&web=1&e=5mLjeV","anexo":" "}},{"type":"Feature","id":27,"geometry":{"type":"Point","coordinates":[-47.605721092994472,-24.273668999660291]},"properties":{"FID":27,"cod":28,"tipo":"TAC","mudas":16287,"Municipio":"Juquiá","nome":"Juquiá","doc":"Rio Juquiá - Sítio Cambuca - Caríba","contrato":"Inquérito civil n° 41.0704.0000119/2010","contratada":" ","Status_con":"À contratar","area_ha":9.7699999999999996,"Link":"https://sabespcloud.sharepoint.com/:b:/r/sites/GerenciamentodosPlantios/Documentos%20Compartilhados/03_Autos_Integrais_1_.pdf?csf=1&web=1&e=9TQeIb","anexo":" "}},{"type":"Feature","id":28,"geometry":{"type":"Point","coordinates":[-47.337608352259188,-24.161564245410005]},"properties":{"FID":28,"cod":29,"tipo":"TAC","mudas":17262,"Municipio":"Miracatu","nome":"Miracatu Etapas II e III e Rio Bananal","doc":"Inquérito Civil nº 14.0704.0000105/2010-1","contrato":" ","contratada":" ","Status_con":"À contratar","area_ha":11.4,"Link":"https://sabespcloud.sharepoint.com/:b:/r/sites/GerenciamentodosPlantios/Documentos%20Compartilhados/Projeto%20MIRACATU%20em%2019%20de%20janeiro%20de%202022%20com%20%C3%A1reas%20iluminadas.pdf?csf=1&web=1&e=peoOGL","anexo":" "}},{"type":"Feature","id":29,"geometry":{"type":"Point","coordinates":[-47.887394674257791,-24.609366022984847]},"properties":{"FID":29,"cod":30,"tipo":"TAC","mudas":18837,"Municipio":"Pariquera-Açu","nome":"APTA","doc":"Inquérito Civil nº 14.0704.0000118/2010-9","contrato":" ","contratada":" ","Status_con":"À contratar","area_ha":11.300000000000001,"Link":"https://sabespcloud.sharepoint.com/:b:/r/sites/GerenciamentodosPlantios/Documentos%20Compartilhados/projeto%20APTA%20em%2019%20de%20abril%20de%202022%20vers%C3%A3o%201%20(1).pdf?csf=1&web=1&e=bvfi9N","anexo":" "}},{"type":"Feature","id":30,"geometry":{"type":"Point","coordinates":[-46.27427514562072,-23.032939823418566]},"properties":{"FID":30,"cod":31,"tipo":"TCRA","mudas":166700,"Municipio":"Piracaia","nome":"Prateleiras","doc":"Parceria","contrato":" ","contratada":"DaSerra","Status_con":"não","area_ha":100,"Link":" ","anexo":" "}},{"type":"Feature","id":31,"geometry":{"type":"Point","coordinates":[-46.272293364660719,-23.025031722190928]},"properties":{"FID":31,"cod":32,"tipo":"TCRA","mudas":50890,"Municipio":"Piracaia","nome":"Piracaia","doc":"TCRA 52.156/21","contrato":"02.109/23","contratada":"ECOVALE","Status_con":"Não","area_ha":43.369999999999997,"Link":"https://sabespcloud.sharepoint.com/:b:/r/sites/GerenciamentodosPlantios/Documentos%20Compartilhados/Contrato_02109_23_assinado.pdf?csf=1&web=1&e=h5ffyg","anexo":" "}},{"type":"Feature","id":32,"geometry":{"type":"Point","coordinates":[-45.515782137599167,-22.722705791804]},"properties":{"FID":32,"cod":33,"tipo":"TAC","mudas":900,"Municipio":"Campo do Jordão","nome":"Campos_Jordão","doc":"Acordo Judicial nº 546/000","contrato":"00.333/25","contratada":"TAIATELA","Status_con":"Não","area_ha":2,"Link":"https://sabespcloud.sharepoint.com/:b:/r/sites/GerenciamentodosPlantios/Documentos%20Compartilhados/00333-25%20-%20REPLANTIO%20900%20MUDAS%20CAMPOS%20DO%20JORD%C3%83O.pdf?csf=1&web=1&e=VXxbUl","anexo":" "}},{"type":"Feature","id":33,"geometry":{"type":"Point","coordinates":[-45.92002457417545,-23.185504935599255]},"properties":{"FID":33,"cod":34,"tipo":"TCRA","mudas":480,"Municipio":"São José dos Campos","nome":"SJC- Almoxarifado","doc":"TCRA 104162/2019","contrato":"00030/25","contratada":"ECOVALE","Status_con":"Em operação","area_ha":0.32615,"Link":"https://sabespcloud.sharepoint.com/:b:/r/sites/GerenciamentodosPlantios/Documentos%20Compartilhados/RELATORIO_TECNICO_FOTOGRAFICO_PROCESSO_SMA_001251_2019_24_ALMOXARIFADO_SAO_JOSE_DOS_CAMPOS.pdf?csf=1&web=1&e=Kw6nFH","anexo":" "}},{"type":"Feature","id":34,"geometry":{"type":"Point","coordinates":[-46.653153756325032,-23.453172322922434]},"properties":{"FID":34,"cod":35,"tipo":"TCA","mudas":1870,"Municipio":"São Paulo","nome":"Parque do Bispo","doc":"TAC nº 03/SVMA/CFA/2024","contrato":" 01.716/24","contratada":"ECOTEC","Status_con":"Não","area_ha":0.5,"Link":"https://sabespcloud.sharepoint.com/:b:/r/sites/GerenciamentodosPlantios/Documentos%20Compartilhados/Contrato_Sabesp_01_716%20-%20S%C3%83O%20PAULO.pdf?csf=1&web=1&e=7fyH6L","anexo":" "}},{"type":"Feature","id":35,"geometry":{"type":"Point","coordinates":[-45.030217240028811,-22.66184233985943]},"properties":{"FID":35,"cod":36,"tipo":"TCRA","mudas":2190,"Municipio":"Cachoeira Paulista","nome":"Cortina Vegetal Cachoeira","doc":"TCRA 35.406/23","contrato":"610/24-00","contratada":"Agroarte","Status_con":"Não","area_ha":1.3100000000000001,"Link":" ","anexo":" "}},{"type":"Feature","id":36,"geometry":{"type":"Point","coordinates":[-45.793857228854264,-23.163074026868202]},"properties":{"FID":36,"cod":37,"tipo":"TCRA","mudas":3125,"Municipio":"São José dos Campos","nome":"Petrobras - UNIFESP","doc":"TCRA 10.519/23","contrato":"03.384/23","contratada":"IEVA","Status_con":"Não","area_ha":1.3999999999999999,"Link":"https://sabespcloud.sharepoint.com/:b:/r/sites/GerenciamentodosPlantios/Documentos%20Compartilhados/OM_03.384_23-EAC-IEVA.pdf?csf=1&web=1&e=SQKXTY","anexo":" "}},{"type":"Feature","id":37,"geometry":{"type":"Point","coordinates":[-46.570015590822486,-22.905712256759706]},"properties":{"FID":37,"cod":38,"tipo":"TAC","mudas":32356,"Municipio":"Bragança Paulista","nome":"ETE Mãe dos Homens","doc":" ","contrato":"00.912/23","contratada":"ECOTEC","Status_con":"À contratar","area_ha":23.109999999999999,"Link":" ","anexo":" "}},{"type":"Feature","id":38,"geometry":{"type":"Point","coordinates":[-50.539740504588472,-19.940544857917569]},"properties":{"FID":38,"cod":39,"tipo":"TCRA","mudas":1500,"Municipio":"Populina","nome":"ETE Populina","doc":"TCRA nº 24.390/2021","contrato":"67638732","contratada":"TAIATELA","Status_con":"Em operação","area_ha":0.35999999999999999,"Link":"https://sabespcloud.sharepoint.com/:b:/r/sites/GerenciamentodosPlantios/Documentos%20Compartilhados/Contratual_ME_67638732_Plantio.pdf?csf=1&web=1&e=a2BNDL","anexo":" "}},{"type":"Feature","id":39,"geometry":{"type":"Point","coordinates":[-46.985126539020563,-23.718675495284884]},"properties":{"FID":39,"cod":40,"tipo":"TAC","mudas":25005,"Municipio":"Barueri","nome":"Cotia - Morro Grande","doc":" ","contrato":" ","contratada":" ","Status_con":"À contratar","area_ha":20,"Link":"https://sabespcloud.sharepoint.com/:b:/r/sites/GerenciamentodosPlantios/Documentos%20Compartilhados/Restauracao_florestal_de_15_ha_na_Reserva_Florestal_do_Morro_Grande.pdf?csf=1&web=1&e=UU12rn","anexo":" "}},{"type":"Feature","id":40,"geometry":{"type":"Point","coordinates":[-48.419453281026165,-22.994833121753736]},"properties":{"FID":40,"cod":41,"tipo":"TCRA","mudas":17834,"Municipio":"Botucatu","nome":"Pardo 2 - Complemento","doc":"TCRA 90.276/2019","contrato":"412/25-00","contratada":"VP Ecologia","Status_con":"Em operação","area_ha":5.3499999999999996,"Link":"https://sabespcloud.sharepoint.com/:b:/r/sites/GerenciamentodosPlantios/Documentos%20Compartilhados/Minuta_Contratual_RFP_00_412_25_REPLANTIO_BOTUCATU_FINAL.pdf?csf=1&web=1&e=Yg1sx9","anexo":" "}},{"type":"Feature","id":41,"geometry":{"type":"Point","coordinates":[-50.894697926320255,-21.860128519789217]},"properties":{"FID":41,"cod":42,"tipo":"TAC","mudas":1667,"Municipio":"Osvaldo Cruz","nome":"Osvaldo Cruz","doc":"Ação Civil Pública nº 0006059-59.2014.8.26.0407","contrato":"67997752","contratada":"VB AMBIENTAL\u00A0","Status_con":"Em operação","area_ha":1,"Link":"https://sabespcloud.sharepoint.com/:b:/r/sites/GerenciamentodosPlantios/Documentos%20Compartilhados/Contratual_RFP_67997752_OSVALDO_CRUZ.pdf?csf=1&web=1&e=EEXvh6","anexo":" "}},{"type":"Feature","id":42,"geometry":{"type":"Point","coordinates":[-47.337608352259188,-24.161564245410005]},"properties":{"FID":42,"cod":43,"tipo":"TAC","mudas":9335,"Municipio":"Miracatu","nome":"Miracatu Etapa 1","doc":"51.0707.0000105/2010-3","contrato":" ","contratada":"Ambientale","Status_con":"Concluído","area_ha":5.5999999999999996,"Link":"https://sabespcloud.sharepoint.com/:b:/r/sites/GerenciamentodosPlantios/Documentos%20Compartilhados/Miracatu%20Etapa%201.pdf?csf=1&web=1&e=wjJpuM","anexo":" "}},{"type":"Feature","id":43,"geometry":{"type":"Point","coordinates":[-46.730890388132607,-23.441192951508061]},"properties":{"FID":43,"cod":44,"tipo":"TCA","mudas":453,"Municipio":"São Paulo","nome":"Pq Pinheirinho d'água","doc":"Manifestação Técnica n° 054/CLA/DCRA/GTAP/2025","contrato":" ","contratada":" ","Status_con":"À contratar","area_ha":0.27179999999999999,"Link":"https://sabespcloud.sharepoint.com/:b:/r/sites/GerenciamentodosPlantios/Documentos%20Compartilhados/Proj_Restauracao_Pq%20Pinheirinho.pdf?csf=1&web=1&e=Lz8VRW","anexo":" "}},{"type":"Feature","id":44,"geometry":{"type":"Point","coordinates":[-47.181098123979496,-22.767134050042532]},"properties":{"FID":44,"cod":45,"tipo":"TCRA","mudas":5714,"Municipio":"Paulínia","nome":"ETE Paulinia","doc":"24.528/2001","contrato":" ","contratada":"Schidt Serv Agr.","Status_con":"Em operação","area_ha":3.4129999999999998,"Link":"https://sabespcloud.sharepoint.com/:b:/r/sites/GerenciamentodosPlantios/Documentos%20Compartilhados/Protocolo_CETESB.047737-2024-42_selecionados.pdf?csf=1&web=1&e=Qol1x7","anexo":" "}},{"type":"Feature","id":45,"geometry":{"type":"Point","coordinates":[-46.520260995101374,-22.658336772132373]},"properties":{"FID":45,"cod":46,"tipo":"TAC","mudas":8815,"Municipio":"Socorro","nome":"Sitio Nossa Senhora Aparecida","doc":"Ação Cívil Pública nº 000153388.2010.8.26.0601","contrato":" ","contratada":" ","Status_con":"Em operação","area_ha":15,"Link":"https://sabespcloud.sharepoint.com/:b:/r/sites/GerenciamentodosPlantios/Documentos%20Compartilhados/TR_Socorro_5_30_ha_V2.pdf?csf=1&web=1&e=Tja7Ua","anexo":" "}},{"type":"Feature","id":46,"geometry":{"type":"Point","coordinates":[-46.300908036709998,-23.059934667958029]},"properties":{"FID":46,"cod":47,"tipo":"TCRA","mudas":50293,"Municipio":"Piracaia","nome":"Aditivo M","doc":"TCRA 32.363/19","contrato":" ","contratada":"Ambiental","Status_con":"À contratar manutenção","area_ha":30.300000000000001,"Link":" ","anexo":" "}},{"type":"Feature","id":47,"geometry":{"type":"Point","coordinates":[-46.305996054800616,-23.041122726506295]},"properties":{"FID":47,"cod":48,"tipo":"TCRA","mudas":119508,"Municipio":"Piracaia","nome":"Taiaçupeba Lote 1","doc":"TCRA 33.040/19","contrato":"68844063","contratada":"Jardiplan","Status_con":"Em operação","area_ha":90,"Link":"https://sabespcloud.sharepoint.com/:b:/r/sites/GerenciamentodosPlantios/Documentos%20Compartilhados/Contratual_ME_67638732_Plantio.pdf?csf=1&web=1&e=a2BNDL","anexo":" "}},{"type":"Feature","id":48,"geometry":{"type":"Point","coordinates":[-46.248538166386695,-23.015414649903867]},"properties":{"FID":48,"cod":49,"tipo":"TCRA","mudas":133860,"Municipio":"Piracaia","nome":"Banco de áreas","doc":" ","contrato":" ","contratada":" ","Status_con":"À contratar","area_ha":80.299999999999997,"Link":" ","anexo":" "}},{"type":"Feature","id":49,"geometry":{"type":"Point","coordinates":[-46.26921208222727,-23.011709531878701]},"properties":{"FID":49,"cod":50,"tipo":"TCRA","mudas":144275,"Municipio":"Piracaia","nome":"Taiaçupeba Lote 3","doc":"TCRA 33.040/19","contrato":"68844456","contratada":"GEONOMA","Status_con":"Em operação","area_ha":100,"Link":" ","anexo":" "}},{"type":"Feature","id":50,"geometry":{"type":"Point","coordinates":[-46.285630138749461,-23.028492206423028]},"properties":{"FID":50,"cod":51,"tipo":"TCRA","mudas":156843,"Municipio":"Piracaia","nome":"Taiaçupeba Lote 2","doc":"TCRA 33.040/19","contrato":"848726/26","contratada":"ECOVALE","Status_con":"Em operação","area_ha":0,"Link":" ","anexo":" "}}]}